STARLINK-2400
1 17817C 21018AG  21326.18401023 -.00020159  00000-0 -13507-2 0  3263
2 17817  53.0541  92.9037 0001353  69.4833 358.7665 15.06418845    15
